CTC1_L_00416016-03
1 50519U 26642WI  26070.40836806  .00000000  00000+0  00000-0 0  9999
2 50519  75.0000 180.0000 0000000   0.0000   0.0000 12.77881384    13
CTC1_L_00416016-04
1 50520U 24384DC  26070.40836806  .00000000  00000+0  00000-0 0  9992
2 50520  75.0000 180.0000 0000000   0.0000  90.0000 12.77881384    14
CTC1_L_00416017-01
1 50521U 22438YV  26070.40836806  .00000000  00000+0  00000-0 0  9991
2 50521  75.0000 192.0000 0000000   0.0000 192.0000 12.77881384    11
CTC1_L_00416017-02
1 50522U 24068ZO  26070.40836806  .00000000  00000+0  00000-0 0  9993
2 50522  75.0000 192.0000 0000000   0.0000 282.0000 12.77881384    12
CTC1_L_00416017-03
1 50523U 22308FF  26070.40836806  .00000000  00000+0  00000-0 0  9999
2 50523  75.0000 192.0000 0000000   0.0000  12.0000 12.77881384    14
CTC1_L_00416017-04
1 50524U 25525YV  26070.40836806  .00000000  00000+0  00000-0 0  9994
2 50524  75.0000 192.0000 0000000   0.0000 102.0000 12.77881384    15
CTC1_L_00416018-01
1 50525U 25398KY  26070.40836806  .00000000  00000+0  00000-0 0  9993
2 50525  75.0000 204.0000 0000000   0.0000 204.0000 12.77881384    13
CTC1_L_00416018-02
1 50526U 25387ZT  26070.40836806  .00000000  00000+0  00000-0 0  9992
2 50526  75.0000 204.0000 0000000   0.0000 294.0000 12.77881384    13
CTC1_L_00416018-03
1 50527U 22536VI  26070.40836806  .00000000  00000+0  00000-0 0  9996
2 50527  75.0000 204.0000 0000000   0.0000  24.0000 12.77881384    15
CTC1_L_00416018-04
1 50528U 22718GW  26070.40836806  .00000000  00000+0  00000-0 0  9999
2 50528  75.0000 204.0000 0000000   0.0000 114.0000 12.77881384    16
CTC1_L_00416019-01
1 50529U 25111RW  26070.40836806  .00000000  00000+0  00000-0 0  9990
2 50529  75.0000 216.0000 0000000   0.0000 216.0000 12.77881384    13
CTC1_L_00416019-02
1 50530U 22293KB  26070.40836806  .00000000  00000+0  00000-0 0  9990
2 50530  75.0000 216.0000 0000000   0.0000 306.0000 12.77881384    15
CTC1_L_00416019-03
1 50531U 22795AI  26070.40836806  .00000000  00000+0  00000-0 0  9998
2 50531  75.0000 216.0000 0000000   0.0000  36.0000 12.77881384    16
CTC1_L_00416019-04
1 50532U 23480YA  26070.40836806  .00000000  00000+0  00000-0 0  9991
2 50532  75.0000 216.0000 0000000   0.0000 126.0000 12.77881384    17
CTC1_L_00416020-01
1 50533U 23472DQ  26070.40836806  .00000000  00000+0  00000-0 0  9993
2 50533  75.0000 228.0000 0000000   0.0000 228.0000 12.77881384    14
CTC1_L_00416020-02
1 50534U 23486JB  26070.40836806  .00000000  00000+0  00000-0 0  9999
2 50534  75.0000 228.0000 0000000   0.0000 318.0000 12.77881384    15
CTC1_L_00416020-03
1 50535U 22366RM  26070.40836806  .00000000  00000+0  00000-0 0  9996
2 50535  75.0000 228.0000 0000000   0.0000  48.0000 12.77881384    16
CTC1_L_00416020-04
1 50536U 25539MN  26070.40836806  .00000000  00000+0  00000-0 0  9992
2 50536  75.0000 228.0000 0000000   0.0000 138.0000 12.77881384    17
CTC1_L_00416021-01
1 50537U 26577UO  26070.40836806  .00000000  00000+0  00000-0 0  9996
2 50537  75.0000 240.0000 0000000   0.0000 240.0000 12.77881384    16
CTC1_L_00416021-02
1 50538U 24089EK  26070.40836806  .00000000  00000+0  00000-0 0  9993
2 50538  75.0000 240.0000 0000000   0.0000 330.0000 12.77881384    17
CTC1_L_00416021-03
1 50539U 22873SM  26070.40836806  .00000000  00000+0  00000-0 0  9993
2 50539  75.0000 240.0000 0000000   0.0000  60.0000 12.77881384    18
CTC1_L_00416021-04
1 50540U 22942SR  26070.40836806  .00000000  00000+0  00000-0 0  9992
2 50540  75.0000 240.0000 0000000   0.0000 150.0000 12.77881384    10
CTC1_L_00416022-01
1 50541U 25698Q   26070.40836806  .00000000  00000+0  00000-0 0  9994
2 50541  75.0000 252.0000 0000000   0.0000 252.0000 12.77881384    17
CTC1_L_00416022-02
1 50542U 24382G   26070.40836806  .00000000  00000+0  00000-0 0  9994
2 50542  75.0000 252.0000 0000000   0.0000 342.0000 12.77881384    18
CTC1_L_00416022-03
1 50543U 25864PU  26070.40836806  .00000000  00000+0  00000-0 0  9991
2 50543  75.0000 252.0000 0000000   0.0000  72.0000 12.77881384    19
CTC1_L_00416022-04
1 50544U 25107KL  26070.40836806  .00000000  00000+0  00000-0 0  9992
2 50544  75.0000 252.0000 0000000   0.0000 162.0000 12.77881384    10
CTC1_L_00416023-01
1 50545U 24051DO  26070.40836806  .00000000  00000+0  00000-0 0  9990
2 50545  75.0000 264.0000 0000000   0.0000 264.0000 12.77881384    17
CTC1_L_00416023-02
1 50546U 25141UG  26070.40836806  .00000000  00000+0  00000-0 0  9992
2 50546  75.0000 264.0000 0000000   0.0000 354.0000 12.77881384    18
CTC1_L_00416023-03
1 50547U 26863CA  26070.40836806  .00000000  00000+0  00000-0 0  9995
2 50547  75.0000 264.0000 0000000   0.0000  84.0000 12.77881384    19
CTC1_L_00416023-04
1 50548U 22995HT  26070.40836806  .00000000  00000+0  00000-0 0  9998
2 50548  75.0000 264.0000 0000000   0.0000 174.0000 12.77881384    10
CTC1_L_00416024-01
1 50549U 24954WA  26070.40836806  .00000000  00000+0  00000-0 0  9996
2 50549  75.0000 276.0000 0000000   0.0000 276.0000 12.77881384    17
CTC1_L_00416024-02
1 50550U 24308OM  26070.40836806  .00000000  00000+0  00000-0 0  9991
2 50550  75.0000 276.0000 0000000   0.0000   6.0000 12.77881384    10
CTC1_L_00416024-03
1 50551U 23379UM  26070.40836806  .00000000  00000+0  00000-0 0  9999
2 50551  75.0000 276.0000 0000000   0.0000  96.0000 12.77881384    10
CTC1_L_00416024-04
1 50552U 23493ZU  26070.40836806  .00000000  00000+0  00000-0 0  9997
2 50552  75.0000 276.0000 0000000   0.0000 186.0000 12.77881384    11
CTC1_L_00416025-01
1 50553U 25861GF  26070.40836806  .00000000  00000+0  00000-0 0  9999
2 50553  75.0000 288.0000 0000000   0.0000 288.0000 12.77881384    18
CTC1_L_00416025-02
1 50554U 25991IF  26070.40836806  .00000000  00000+0  00000-0 0  9994
2 50554  75.0000 288.0000 0000000   0.0000  18.0000 12.77881384    10
CTC1_L_00416025-03
1 50555U 22418CC  26070.40836806  .00000000  00000+0  00000-0 0  9996
2 50555  75.0000 288.0000 0000000   0.0000 108.0000 12.77881384    11
CTC1_L_00416025-04
1 50556U 23986IK  26070.40836806  .00000000  00000+0  00000-0 0  9998
2 50556  75.0000 288.0000 0000000   0.0000 198.0000 12.77881384    11
CTC1_L_00416026-01
1 50557U 23776UJ  26070.40836806  .00000000  00000+0  00000-0 0  9996
2 50557  75.0000 300.0000 0000000   0.0000 300.0000 12.77881384    12
CTC1_L_00416026-02
1 50558U 25229JM  26070.40836806  .00000000  00000+0  00000-0 0  9992
2 50558  75.0000 300.0000 0000000   0.0000  30.0000 12.77881384    13
CTC1_L_00416026-03
1 50559U 24191PS  26070.40836806  .00000000  00000+0  00000-0 0  9990
2 50559  75.0000 300.0000 0000000   0.0000 120.0000 12.77881384    14
CTC1_L_00416026-04
1 50560U 24167KQ  26070.40836806  .00000000  00000+0  00000-0 0  9995
2 50560  75.0000 300.0000 0000000   0.0000 210.0000 12.77881384    16
CTC1_L_00416027-01
1 50561U 22413PF  26070.40836806  .00000000  00000+0  00000-0 0  9998
2 50561  75.0000 312.0000 0000000   0.0000 312.0000 12.77881384    13
CTC1_L_00416027-02
1 50562U 25292VC  26070.40836806  .00000000  00000+0  00000-0 0  9997
2 50562  75.0000 312.0000 0000000   0.0000  42.0000 12.77881384    14
CTC1_L_00416027-03
1 50563U 25356QQ  26070.40836806  .00000000  00000+0  00000-0 0  9999
2 50563  75.0000 312.0000 0000000   0.0000 132.0000 12.77881384    15
CTC1_L_00416027-04
1 50564U 26534OT  26070.40836806  .00000000  00000+0  00000-0 0  9999
2 50564  75.0000 312.0000 0000000   0.0000 222.0000 12.77881384    16
CTC1_L_00416028-01
1 50565U 24091YS  26070.40836806  .00000000  00000+0  00000-0 0  9996
2 50565  75.0000 324.0000 0000000   0.0000 324.0000 12.77881384    13
CTC1_L_00416028-02
1 50566U 22631MN  26070.40836806  .00000000  00000+0  00000-0 0  9995
2 50566  75.0000 324.0000 0000000   0.0000  54.0000 12.77881384    14
CTC1_L_00416028-03
1 50567U 25681GG  26070.40836806  .00000000  00000+0  00000-0 0  9994
2 50567  75.0000 324.0000 0000000   0.0000 144.0000 12.77881384    15
CTC1_L_00416028-04
1 50568U 24579UD  26070.40836806  .00000000  00000+0  00000-0 0  9990
2 50568  75.0000 324.0000 0000000   0.0000 234.0000 12.77881384    16
CTC1_L_00416029-01
1 50569U 22420DU  26070.40836806  .00000000  00000+0  00000-0 0  9994
2 50569  75.0000 336.0000 0000000   0.0000 336.0000 12.77881384    13
CTC1_L_00416029-02
1 50570U 25525EK  26070.40836806  .00000000  00000+0  00000-0 0  9995
2 50570  75.0000 336.0000 0000000   0.0000  66.0000 12.77881384    15
CTC1_L_00416029-03
1 50571U 25332PR  26070.40836806  .00000000  00000+0  00000-0 0  9992
2 50571  75.0000 336.0000 0000000   0.0000 156.0000 12.77881384    16
CTC1_L_00416029-04
1 50572U 23736BC  26070.40836806  .00000000  00000+0  00000-0 0  9999
2 50572  75.0000 336.0000 0000000   0.0000 246.0000 12.77881384    17
CTC1_L_00416030-01
1 50573U 24327TB  26070.40836806  .00000000  00000+0  00000-0 0  9997
2 50573  75.0000 348.0000 0000000   0.0000 348.0000 12.77881384    14
CTC1_L_00416030-02
1 50574U 22603T   26070.40836806  .00000000  00000+0  00000-0 0  9993
2 50574  75.0000 348.0000 0000000   0.0000  78.0000 12.77881384    15
CTC1_L_00416030-03
1 50575U 25599PK  26070.40836806  .00000000  00000+0  00000-0 0  9991
2 50575  75.0000 348.0000 0000000   0.0000 168.0000 12.77881384    16
CTC1_L_00416030-04
1 50576U 26357IK  26070.40836806  .00000000  00000+0  00000-0 0  9995
2 50576  75.0000 348.0000 0000000   0.0000 258.0000 12.77881384    17
